NORAD_CAT_ID,OBJECT_NAME,OBJECT_TYPE,EPOCH,MEAN_MOTION,ECCENTRICITY,INCLINATION,RA_OF_ASC_NODE,ARG_OF_PERICENTER,MEAN_ANOMALY,BSTAR,MEAN_MOTION_DOT,MEAN_MOTION_DDOT,TLE_LINE0,TLE_LINE1,TLE_LINE2,SEMIMAJOR_AXIS,PERIOD,APOGEE,PERIGEE,DECAYED
54077.0,STARLINK-5171,PAYLOAD,2023-05-02 20:06:17,15.09298388,0.000239,53.2176,320.9438,140.0869,220.03,0.007446,0.00121793,0.0,0 STARLINK-5171,1 54077U 22136AC  23122.83770626  .00121793  00000-0  74460-2 0  9992,2 54077  53.2176 320.9438 0002390 140.0869 220.0300 15.09298388 29843,6916.48,95.409,539.998,536.692,0.0
54077.0,STARLINK-5171,PAYLOAD,2023-05-03 04:02:59,15.09607135,0.0001253,53.2171,319.4509,79.3965,280.7168,0.012822,0.00214516,0.0,0 STARLINK-5171,1 54077U 22136AC  23123.16874299  .00214516  00000-0  12822-1 0  9999,2 54077  53.2171 319.4509 0001253  79.3965 280.7168 15.09607135 30377,6915.537,95.389,538.268,536.535,0.0
54077.0,STARLINK-5171,PAYLOAD,2023-05-03 11:59:32,15.09863026,0.0001951,53.217,317.9625,28.7631,331.3469,0.013234,0.00223254,0.0,0 STARLINK-5171,1 54077U 22136AC  23123.49968672  .00223254  00000-0  13234-1 0  9991,2 54077  53.2170 317.9625 0001951  28.7631 331.3469 15.09863026 30427,6914.755,95.373,537.969,535.271,0.0
54077.0,STARLINK-5171,PAYLOAD,2023-05-03 19:55:59,15.10180806,0.0003769,53.2172,316.4739,291.0893,68.9696,0.0088135,0.00148317,0.0,0 STARLINK-5171,1 54077U 22136AC  23123.83054657  .00148317  00000-0  88135-2 0  9997,2 54077  53.2172 316.4739 0003769 291.0893  68.9696 15.10180806 30473,6913.785,95.353,538.256,533.044,0.0
54077.0,STARLINK-5171,PAYLOAD,2023-05-04 06:00:00,15.10479276,0.0001238,53.2165,314.5856,83.1914,39.283,-0.0011288,-0.00019036,0.0,0 STARLINK-5171,1 54077U 22136AC  23124.25001157 -.00019036  00000-0 -11288-2 0  9993,2 54077  53.2165 314.5856 0001238  83.1914  39.2830 15.10479276 30548,6912.874,95.334,535.595,533.883,0.0
54077.0,STARLINK-5171,PAYLOAD,2023-05-04 14:00:01,15.10482661,0.0001202,53.2166,313.0851,94.3206,41.7526,0.00016996,2.538e-05,0.0,0 STARLINK-5171,1 54077U 22136AC  23124.58335648  .00002538  00000-0  16996-3 0  9993,2 54077  53.2166 313.0851 0001202  94.3206  41.7526 15.10482661  1301,6912.864,95.334,535.56,533.898,0.0
54077.0,STARLINK-5171,PAYLOAD,2023-05-04 19:45:10,15.10468166,0.0001576,53.2176,312.0088,131.0996,229.0133,0.0010314,0.00016915,0.0,0 STARLINK-5171,1 54077U 22136AC  23124.82303944  .00016915  00000-0  10314-2 0  9995,2 54077  53.2176 312.0088 0001576 131.0996 229.0133 15.10468166 30145,6912.908,95.335,535.863,533.684,0.0
54077.0,STARLINK-5171,PAYLOAD,2023-05-05 10:00:00,15.10443901,9.79e-05,53.2158,309.3341,90.7196,259.1935,0.003802,0.00063511,0.0,0 STARLINK-5171,1 54077U 22136AC  23125.41667824  .00063511  00000-0  38020-2 0  9999,2 54077  53.2158 309.3341 0000979  90.7196 259.1935 15.10443901 30712,6912.982,95.336,535.524,534.17,0.0
54077.0,STARLINK-5171,PAYLOAD,2023-05-05 19:34:24,15.10485734,8.83e-05,53.2161,307.5397,89.864,270.2454,0.00065698,0.00010664,0.0,0 STARLINK-5171,1 54077U 22136AC  23125.81556174  .00010664  00000-0  65698-3 0  9991,2 54077  53.2161 307.5397 0000883  89.8640 270.2454 15.10485734 30297,6912.855,95.334,535.33,534.109,0.0
54077.0,STARLINK-5171,PAYLOAD,2023-05-06 02:00:01,15.10473414,0.0001004,53.2155,306.3349,66.0967,310.9368,-0.00059924,-0.00010253,0.0,0 STARLINK-5171,1 54077U 22136AC  23126.08334491 -.00010253  00000-0 -59924-3 0  9998,2 54077  53.2155 306.3349 0001004  66.0967 310.9368 15.10473414 30815,6912.892,95.334,535.451,534.063,0.0
54077.0,STARLINK-5171,PAYLOAD,2023-05-06 16:00:00,15.10512123,9.84e-05,53.2157,303.7093,73.9722,236.779,-0.003253,-0.00054093,0.0,0 STARLINK-5171,1 54077U 22136AC  23126.66667824 -.00054093  00000-0 -32530-2 0  9994,2 54077  53.2157 303.7093 0000984  73.9722 236.7790 15.10512123  1303,6912.774,95.332,535.319,533.959,0.0
54077.0,STARLINK-5171,PAYLOAD,2023-05-06 19:23:38,15.10490023,0.0001106,53.2151,303.0719,68.6929,291.4181,0.00057691,9.328e-05,0.0,0 STARLINK-5171,1 54077U 22136AC  23126.80808273  .00009328  00000-0  57691-3 0  9990,2 54077  53.2151 303.0719 0001106  68.6929 291.4181 15.10490023 30928,6912.842,95.333,535.471,533.942,0.0
54077.0,STARLINK-5171,PAYLOAD,2023-05-07 04:55:19,15.10481514,9.58e-05,53.215,301.2855,76.4391,283.6708,0.00021404,3.273e-05,0.0,0 STARLINK-5171,1 54077U 22136AC  23127.20509144  .00003273  00000-0  21404-3 0  9996,2 54077  53.2150 301.2855 0000958  76.4391 283.6708 15.10481514 30981,6912.867,95.334,535.395,534.07,0.0
54077.0,STARLINK-5171,PAYLOAD,2023-05-07 17:37:35,15.1047329,0.000105,53.2158,298.9031,79.1356,280.9755,4.4694e-05,4.52e-06,0.0,0 STARLINK-5171,1 54077U 22136AC  23127.73444333  .00000452  00000-0  44694-4 0  9995,2 54077  53.2158 298.9031 0001050  79.1356 280.9755 15.10473290 31066,6912.893,95.334,535.483,534.032,0.0
54077.0,STARLINK-5171,PAYLOAD,2023-05-08 17:26:49,15.10483092,0.0001071,53.216,294.4351,86.7693,273.3422,0.00010036,1.379e-05,0.0,0 STARLINK-5171,1 54077U 22136AC  23128.72696108  .00001379  00000-0  10036-3 0  9995,2 54077  53.2160 294.4351 0001071  86.7693 273.3422 15.10483092 31211,6912.863,95.334,535.468,533.987,0.0
54077.0,STARLINK-5171,PAYLOAD,2023-05-08 20:37:23,15.10487826,0.0001154,53.216,293.8406,77.5652,282.547,0.00018127,2.727e-05,0.0,0 STARLINK-5171,1 54077U 22136AC  23128.85929572  .00002727  00000-0  18127-3 0  9990,2 54077  53.2160 293.8406 0001154  77.5652 282.5470 15.10487826 30752,6912.848,95.333,535.511,533.915,0.0
54077.0,STARLINK-5171,PAYLOAD,2023-05-09 14:05:30,15.10473032,0.0001047,53.2158,290.5656,87.5029,272.6084,0.00010678,1.485e-05,0.0,0 STARLINK-5171,1 54077U 22136AC  23129.58715428  .00001485  00000-0  10678-3 0  9997,2 54077  53.2158 290.5656 0001047  87.5029 272.6084 15.10473032 30867,6912.893,95.334,535.482,534.035,0.0
54077.0,STARLINK-5171,PAYLOAD,2023-05-09 20:26:38,15.10462187,9.22e-05,53.2162,289.3747,78.8202,281.2894,-9.6831e-05,-1.903e-05,0.0,0 STARLINK-5171,1 54077U 22136AC  23129.85183333 -.00001903  00000-0 -96831-4 0  9994,2 54077  53.2162 289.3747 0000922  78.8202 281.2894 15.10462187 30905,6912.926,95.335,535.429,534.154,0.0
54077.0,STARLINK-5171,PAYLOAD,2023-05-11 06:00:00,15.08852573,0.0001052,53.2169,283.0891,92.5785,310.4779,-0.00115,-0.00018549,0.0,0 STARLINK-5171,1 54077U 22136AC  23131.25001157 -.00018549  00000-0 -11500-2 0  9996,2 54077  53.2169 283.0891 0001052  92.5785 310.4779 15.08852573 31599,6917.842,95.437,540.435,538.979,0.0
54077.0,STARLINK-5171,PAYLOAD,2023-05-11 14:00:01,15.0885953,0.0001135,53.217,281.5937,87.9513,326.7028,-0.0028683,-0.00045671,0.0,0 STARLINK-5171,1 54077U 22136AC  23131.58334491 -.00045671  00000-0 -28683-2 0  9998,2 54077  53.2170 281.5937 0001135  87.9513 326.7028 15.08859530  1307,6917.821,95.436,540.471,538.901,0.0
54077.0,STARLINK-5171,PAYLOAD,2023-05-11 22:00:00,15.08820559,0.0001103,53.2165,280.0981,78.6716,347.5831,0.0015801,0.00024935,0.0,0 STARLINK-5171,1 54077U 22136AC  23131.91667824  .00024935  00000-0  15801-2 0  9990,2 54077  53.2165 280.0981 0001103  78.6716 347.5831 15.08820559  1303,6917.94,95.439,540.568,539.042,0.0
54077.0,STARLINK-5171,PAYLOAD,2023-05-12 12:00:00,15.08853244,0.0001126,53.2167,277.4785,86.4866,270.0073,-0.0009285,-0.0001504,0.0,0 STARLINK-5171,1 54077U 22136AC  23132.50001157 -.00015040  00000-0 -92850-3 0  9996,2 54077  53.2167 277.4785 0001126  86.4866 270.0073 15.08853244  1300,6917.84,95.437,540.484,538.926,0.0
54077.0,STARLINK-5171,PAYLOAD,2023-05-12 22:00:00,15.08816223,0.0001068,53.2159,275.6091,77.6969,23.3171,0.002091,0.00033125,0.0,0 STARLINK-5171,1 54077U 22136AC  23132.91667824  .00033125  00000-0  20910-2 0  9999,2 54077  53.2159 275.6091 0001068  77.6969  23.3171 15.08816223  1306,6917.953,95.439,540.557,539.079,0.0
54077.0,STARLINK-5171,PAYLOAD,2023-05-13 00:00:02,15.08835339,0.0001063,53.2158,275.2344,81.7571,112.2092,-5.7006e-05,-1.195e-05,0.0,0 STARLINK-5171,1 54077U 22136AC  23133.00002315 -.00001195  00000-0 -57006-4 0  9990,2 54077  53.2158 275.2344 0001063  81.7571 112.2092 15.08835339 31865,6917.895,95.438,540.495,539.024,0.0
54077.0,STARLINK-5171,PAYLOAD,2023-05-13 14:00:01,15.08894995,0.0001179,53.2158,272.6159,86.2329,37.9592,-0.006042,-0.00095317,0.0,0 STARLINK-5171,1 54077U 22136AC  23133.58334491 -.00095317  00000-0 -60420-2 0  9997,2 54077  53.2158 272.6159 0001179  86.2329  37.9592 15.08894995  1306,6917.712,95.434,540.393,538.762,0.0
54077.0,STARLINK-5171,PAYLOAD,2023-05-13 16:00:00,15.08880533,0.000122,53.2156,272.2422,83.3648,133.7386,-0.0059398,-0.00093694,0.0,0 STARLINK-5171,1 54077U 22136AC  23133.66667824 -.00093694  00000-0 -59398-2 0  9993,2 54077  53.2156 272.2422 0001220  83.3648 133.7386 15.08880533 31966,6917.756,95.435,540.465,538.778,0.0
54077.0,STARLINK-5171,PAYLOAD,2023-05-13 22:00:00,15.08810697,0.0001246,53.2153,271.1198,78.9531,56.8641,0.0015054,0.00023732,0.0,0 STARLINK-5171,1 54077U 22136AC  23133.91667824  .00023732  00000-0  15054-2 0  9996,2 54077  53.2153 271.1198 0001246  78.9531  56.8641 15.08810697  1308,6917.97,95.439,540.697,538.973,0.0
54077.0,STARLINK-5171,PAYLOAD,2023-05-14 08:00:01,15.08816724,0.0001293,53.2153,269.2475,92.8172,147.5258,0.0031928,0.0005086,0.0,0 STARLINK-5171,1 54077U 22136AC  23134.33335648  .00050860  00000-0  31928-2 0  9999,2 54077  53.2153 269.2475 0001293  92.8172 147.5258 15.08816724 32068,6917.952,95.439,540.711,538.922,0.0
54077.0,STARLINK-5171,PAYLOAD,2023-05-14 14:00:01,15.08871337,0.0001307,53.2153,268.1266,86.9815,71.9848,-0.0039283,-0.00062319,0.0,0 STARLINK-5171,1 54077U 22136AC  23134.58334491 -.00062319  00000-0 -39283-2 0  9997,2 54077  53.2153 268.1266 0001307  86.9815  71.9848 15.08871337  1307,6917.785,95.436,540.554,538.745,0.0
54077.0,STARLINK-5171,PAYLOAD,2023-05-14 22:00:00,15.08822049,0.0001238,53.215,266.6304,83.1487,87.4258,0.0010361,0.00016232,0.0,0 STARLINK-5171,1 54077U 22136AC  23134.91667824  .00016232  00000-0  10361-2 0  9990,2 54077  53.2150 266.6304 0001238  83.1487  87.4258 15.08822049  1300,6917.935,95.439,540.657,538.944,0.0
